YAOGAN-43 01G           
1 60464U 24148G   26068.44348481  .00010133  00000+0  35873-3 0  9993
2 60464  35.0006  62.0013 0007382 306.3543  53.6492 15.28332833 87004
STARLINK-35694          
1 66389U 25257K   26068.66949557  .00024476  00000+0  83579-3 0  9993
2 66389  53.1607 216.8869 0001269  78.5683 281.5460 15.30200096 19733
